{"type": "FeatureCollection", "features": [ {"type": "Feature", "properties": {"norad_id": 57401, "name": "TIANMU-1 09", "group": "weather", "lat": 59.18745850706893, "lon": -131.75494523465085, "alt_km": 472.10100614152, "timestamp": "2025-12-12T16:50:32.790756+00:00", "meta": {"OBJECT_NAME": "TIANMU-1 09", "OBJECT_ID": "2023-101C", "EPOCH": "2025-12-12T06:53:24.469728", "MEAN_MOTION": 15.28075135, "ECCENTRICITY": 0.00067857, "INCLINATION": 97.2825, "RA_OF_ASC_NODE": 35.4584, "ARG_OF_PERICENTER": 85.1, "MEAN_ANOMALY": 275.1014, "EPHEMERIS_TYPE": 0, "CLASSIFICATION_TYPE": "U", "NORAD_CAT_ID": 57401, "ELEMENT_SET_NO": 999, "REV_AT_EPOCH": 13308, "BSTAR": 0.00044202757, "MEAN_MOTION_DOT": 0.00012044, "MEAN_MOTION_DDOT": 0}, "tle": {"line1": "1 57401U 23101C   25346.28708877  .00012044  00000+0  44203-3 0  9997", "line2": "2 57401  97.2825  35.4584 0006785  85.1000 275.1014 15.28075135133083"}}, "geometry": {"type": "Point", "coordinates": [-131.75494523465085, 59.18745850706893]}}, {"type": "Feature", "properties": {"norad_id": 57402, "name": "TIANMU-1 10", "group": "weather", "lat": -67.11562085623761, "lon": 54.3700203244, "alt_km": 494.00078412999756, "timestamp": "2025-12-12T16:50:32.790772+00:00", "meta": {"OBJECT_NAME": "TIANMU-1 10", "OBJECT_ID": "2023-101D", "EPOCH": "2025-12-12T07:42:40.341600", "MEAN_MOTION": 15.28066385, "ECCENTRICITY": 0.00085488, "INCLINATION": 97.2906, "RA_OF_ASC_NODE": 36.3412, "ARG_OF_PERICENTER": 84.6504, "MEAN_ANOMALY": 275.5711, "EPHEMERIS_TYPE": 0, "CLASSIFICATION_TYPE": "U", "NORAD_CAT_ID": 57402, "ELEMENT_SET_NO": 999, "REV_AT_EPOCH": 13308, "BSTAR": 0.00040548077, "MEAN_MOTION_DOT": 0.00011042, "MEAN_MOTION_DDOT": 0}, "tle": {"line1": "1 57402U 23101D   25346.32130025  .00011042  00000+0  40548-3 0  9992", "line2": "2 57402  97.2906  36.3412 0008548  84.6504 275.5711 15.28066385133081"}}, "geometry": {"type": "Point", "coordinates": [54.3700203244, -67.11562085623761]}}, {"type": "Feature", "properties": {"norad_id": 57490, "name": "FENGYUN 3F", "group": "weather", "lat": -26.072108877972376, "lon": -129.30513838407867, "alt_km": 831.462434170654, "timestamp": "2025-12-12T16:50:32.790789+00:00", "meta": {"OBJECT_NAME": "FENGYUN 3F", "OBJECT_ID": "2023-111A", "EPOCH": "2025-12-12T07:25:04.251936", "MEAN_MOTION": 14.1989344, "ECCENTRICITY": 6.788e-05, "INCLINATION": 98.7084, "RA_OF_ASC_NODE": 54.6094, "ARG_OF_PERICENTER": 101.2395, "MEAN_ANOMALY": 258.8858, "EPHEMERIS_TYPE": 0, "CLASSIFICATION_TYPE": "U", "NORAD_CAT_ID": 57490, "ELEMENT_SET_NO": 999, "REV_AT_EPOCH": 12234, "BSTAR": 8.7441019e-05, "MEAN_MOTION_DOT": 1.42e-06, "MEAN_MOTION_DDOT": 0}, "tle": {"line1": "1 57490U 23111A   25346.30907699  .00000142  00000+0  87441-4 0  9990", "line2": "2 57490  98.7084  54.6094 0000678 101.2395 258.8858 14.19893440122342"}}, "geometry": {"type": "Point", "coordinates": [-129.30513838407867, -26.072108877972376]}}, {"type": "Feature", "properties": {"norad_id": 58584, "name": "ARKTIKA-M 2", "group": "weather", "lat": 49.23165370363129, "lon": -40.96795944772463, "alt_km": 26288.8183498688, "timestamp": "2025-12-12T16:50:32.790807+00:00", "meta": {"OBJECT_NAME": "ARKTIKA-M 2", "OBJECT_ID": "2023-198A", "EPOCH": "2025-12-08T20:10:13.977120", "MEAN_MOTION": 2.0060476, "ECCENTRICITY": 0.68646991, "INCLINATION": 63.2247, "RA_OF_ASC_NODE": 175.3152, "ARG_OF_PERICENTER": 268.1185, "MEAN_ANOMALY": 18.8267, "EPHEMERIS_TYPE": 0, "CLASSIFICATION_TYPE": "U", "NORAD_CAT_ID": 58584, "ELEMENT_SET_NO": 999, "REV_AT_EPOCH": 1450, "BSTAR": 0, "MEAN_MOTION_DOT": 1.66e-06, "MEAN_MOTION_DDOT": 0}, "tle": {"line1": "1 58584U 23198A   25342.84043955  .00000166  00000+0  00000+0 0  9998", "line2": "2 58584  63.2247 175.3152 6864699 268.1185  18.8267  2.00604760 14506"}}, "geometry": {"type": "Point", "coordinates": [-40.96795944772463, 49.23165370363129]}}, {"type": "Feature", "properties": {"norad_id": 58645, "name": "TIANMU-1 11", "group": "weather", "lat": 67.31741631841928, "lon": -155.65627146397597, "alt_km": 490.61435627826995, "timestamp": "2025-12-12T16:50:32.790827+00:00", "meta": {"OBJECT_NAME": "TIANMU-1 11", "OBJECT_ID": "2023-205A", "EPOCH": "2025-12-12T08:28:44.647392", "MEAN_MOTION": 15.24592397, "ECCENTRICITY": 0.00079458, "INCLINATION": 97.3612, "RA_OF_ASC_NODE": 5.9833, "ARG_OF_PERICENTER": 311.9679, "MEAN_ANOMALY": 48.0881, "EPHEMERIS_TYPE": 0, "CLASSIFICATION_TYPE": "U", "NORAD_CAT_ID": 58645, "ELEMENT_SET_NO": 999, "REV_AT_EPOCH": 10903, "BSTAR": 0.00038839472, "MEAN_MOTION_DOT": 9.515e-05, "MEAN_MOTION_DDOT": 0}, "tle": {"line1": "1 58645U 23205A   25346.35329453  .00009515  00000+0  38839-3 0  9997", "line2": "2 58645  97.3612   5.9833 0007945 311.9679  48.0881 15.24592397109036"}}, "geometry": {"type": "Point", "coordinates": [-155.65627146397597, 67.31741631841928]}}, {"type": "Feature", "properties": {"norad_id": 58646, "name": "TIANMU-1 12", "group": "weather", "lat": -36.0516647705023, "lon": 11.530147591098933, "alt_km": 495.30393972911406, "timestamp": "2025-12-12T16:50:32.790844+00:00", "meta": {"OBJECT_NAME": "TIANMU-1 12", "OBJECT_ID": "2023-205B", "EPOCH": "2025-12-12T07:32:59.134848", "MEAN_MOTION": 15.24474552, "ECCENTRICITY": 0.00058672, "INCLINATION": 97.36, "RA_OF_ASC_NODE": 5.7509, "ARG_OF_PERICENTER": 293.3682, "MEAN_ANOMALY": 66.6938, "EPHEMERIS_TYPE": 0, "CLASSIFICATION_TYPE": "U", "NORAD_CAT_ID": 58646, "ELEMENT_SET_NO": 999, "REV_AT_EPOCH": 10901, "BSTAR": 0.00038655578, "MEAN_MOTION_DOT": 9.433e-05, "MEAN_MOTION_DDOT": 0}, "tle": {"line1": "1 58646U 23205B   25346.31457332  .00009433  00000+0  38656-3 0  9998", "line2": "2 58646  97.3600   5.7509 0005867 293.3682  66.6938 15.24474552109019"}}, "geometry": {"type": "Point", "coordinates": [11.530147591098933, -36.0516647705023]}}, {"type": "Feature", "properties": {"norad_id": 58647, "name": "TIANMU-1 13", "group": "weather", "lat": 39.908472826062244, "lon": -167.45926472059253, "alt_km": 491.75440148587677, "timestamp": "2025-12-12T16:50:32.790860+00:00", "meta": {"OBJECT_NAME": "TIANMU-1 13", "OBJECT_ID": "2023-205C", "EPOCH": "2025-12-12T08:21:18.673920", "MEAN_MOTION": 15.24517814, "ECCENTRICITY": 0.00060584, "INCLINATION": 97.3627, "RA_OF_ASC_NODE": 5.9846, "ARG_OF_PERICENTER": 268.8359, "MEAN_ANOMALY": 91.2184, "EPHEMERIS_TYPE": 0, "CLASSIFICATION_TYPE": "U", "NORAD_CAT_ID": 58647, "ELEMENT_SET_NO": 999, "REV_AT_EPOCH": 10901, "BSTAR": 0.00041646726, "MEAN_MOTION_DOT": 0.00010183, "MEAN_MOTION_DDOT": 0}, "tle": {"line1": "1 58647U 23205C   25346.34813280  .00010183  00000+0  41647-3 0  9998", "line2": "2 58647  97.3627   5.9846 0006058 268.8359  91.2184 15.24517814109012"}}, "geometry": {"type": "Point", "coordinates": [-167.45926472059253, 39.908472826062244]}}, {"type": "Feature", "properties": {"norad_id": 58648, "name": "TIANMU-1 14", "group": "weather", "lat": -50.16144809409893, "lon": 176.77320227259696, "alt_km": 495.74779892737297, "timestamp": "2025-12-12T16:50:32.790876+00:00", "meta": {"OBJECT_NAME": "TIANMU-1 14", "OBJECT_ID": "2023-205D", "EPOCH": "2025-12-12T07:57:23.981184", "MEAN_MOTION": 15.24501667, "ECCENTRICITY": 0.00068454, "INCLINATION": 97.356, "RA_OF_ASC_NODE": 5.3174, "ARG_OF_PERICENTER": 274.4611, "MEAN_ANOMALY": 85.5845, "EPHEMERIS_TYPE": 0, "CLASSIFICATION_TYPE": "U", "NORAD_CAT_ID": 58648, "ELEMENT_SET_NO": 999, "REV_AT_EPOCH": 10901, "BSTAR": 0.00041262215, "MEAN_MOTION_DOT": 0.00010085, "MEAN_MOTION_DDOT": 0}, "tle": {"line1": "1 58648U 23205D   25346.33152756  .00010085  00000+0  41262-3 0  9996", "line2": "2 58648  97.3560   5.3174 0006845 274.4611  85.5845 15.24501667109014"}}, "geometry": {"type": "Point", "coordinates": [176.77320227259696, -50.16144809409893]}}, {"type": "Feature", "properties": {"norad_id": 58660, "name": "TIANMU-1 19", "group": "weather", "lat": 54.135415215199544, "lon": -71.8496996153088, "alt_km": 478.92596248048176, "timestamp": "2025-12-12T16:50:32.790892+00:00", "meta": {"OBJECT_NAME": "TIANMU-1 19", "OBJECT_ID": "2023-208A", "EPOCH": "2025-12-12T06:51:54.736416", "MEAN_MOTION": 15.27837498, "ECCENTRICITY": 0.00040897, "INCLINATION": 97.4384, "RA_OF_ASC_NODE": 97.3237, "ARG_OF_PERICENTER": 255.1315, "MEAN_ANOMALY": 104.9472, "EPHEMERIS_TYPE": 0, "CLASSIFICATION_TYPE": "U", "NORAD_CAT_ID": 58660, "ELEMENT_SET_NO": 999, "REV_AT_EPOCH": 10875, "BSTAR": 0.00050071693, "MEAN_MOTION_DOT": 0.00013549, "MEAN_MOTION_DDOT": 0}, "tle": {"line1": "1 58660U 23208A   25346.28605019  .00013549  00000+0  50072-3 0  9999", "line2": "2 58660  97.4384  97.3237 0004089 255.1315 104.9472 15.27837498108758"}}, "geometry": {"type": "Point", "coordinates": [-71.8496996153088, 54.135415215199544]}}, {"type": "Feature", "properties": {"norad_id": 58661, "name": "TIANMU-1 20", "group": "weather", "lat": -19.11582815899578, "lon": -84.40701572584618, "alt_km": 482.21777107271373, "timestamp": "2025-12-12T16:50:32.790908+00:00", "meta": {"OBJECT_NAME": "TIANMU-1 20", "OBJECT_ID": "2023-208B", "EPOCH": "2025-12-12T06:32:58.843392", "MEAN_MOTION": 15.29027867, "ECCENTRICITY": 0.00063217, "INCLINATION": 97.4321, "RA_OF_ASC_NODE": 97.7578, "ARG_OF_PERICENTER": 268.0498, "MEAN_ANOMALY": 92.0018, "EPHEMERIS_TYPE": 0, "CLASSIFICATION_TYPE": "U", "NORAD_CAT_ID": 58661, "ELEMENT_SET_NO": 999, "REV_AT_EPOCH": 10882, "BSTAR": 0.00050781795, "MEAN_MOTION_DOT": 0.00014258, "MEAN_MOTION_DDOT": 0}, "tle": {"line1": "1 58661U 23208B   25346.27290328  .00014258  00000+0  50782-3 0  9998", "line2": "2 58661  97.4321  97.7578 0006321 268.0498  92.0018 15.29027867108822"}}, "geometry": {"type": "Point", "coordinates": [-84.40701572584618, -19.11582815899578]}}]}